start=new Date('2021-09-23T00:00:00.000Z').valueOf();
sats=[{"LAUNCH_DATE":"2021-02-04","CLASSIFICATION_TYPE":"U","BSTAR":"0.00008649400000","PERIAPSIS":"545.561","EPOCH":"2021-09-22T16:47:54.894624","COUNTRY_CODE":"US","DECAY_DATE":null,"MEAN_MOTION":"15.06392233","FILE":"3123736","RA_OF_ASC_NODE":"124.4302","PERIOD":"95.593","EPHEMERIS_TYPE":"0","MEAN_ANOMALY":"290.5423","APOAPSIS":"548.913","RCS_SIZE":"LARGE","SEMIMAJOR_AXIS":"6925.372","ELEMENT_SET_NO":"999","ECCENTRICITY":"0.00024200","GP_ID":"185268126","CENTER_NAME":"EARTH","REV_AT_EPOCH":"3540","MEAN_MOTION_DOT":"0.00001006","MEAN_ELEMENT_THEORY":"SGP4","OBJECT_NAME":"STARLINK-1957","TLE_LINE1":"1 47558U 21009L   21265.69994091  .00001006  00000-0  86494-4 0  9996","SITE":"AFETR","REF_FRAME":"TEME","ARG_OF_PERICENTER":"69.5825","INCLINATION":"53.0534","OBJECT_ID":"2021-009L","TLE_LINE2":"2 47558  53.0534 124.4302 0002420  69.5825 290.5423 15.06392233 35401","NORAD_CAT_ID":"47558","TIME_SYSTEM":"UTC","MEAN_MOTION_DDOT":"0.0000000000000","OBJECT_TYPE":"PAYLOAD"},{"OBJECT_ID":"2021-009M","TLE_LINE2":"2 47559  53.0558 114.5996 0002505  80.5736 279.5536 15.06399129 35543","NORAD_CAT_ID":"47559","MEAN_MOTION_DDOT":"0.0000000000000","TIME_SYSTEM":"UTC","OBJECT_TYPE":"PAYLOAD","MEAN_MOTION_DOT":"-0.00000480","REV_AT_EPOCH":"3554","CENTER_NAME":"EARTH","OBJECT_NAME":"STARLINK-1958","MEAN_ELEMENT_THEORY":"SGP4","SITE":"AFETR","REF_FRAME":"TEME","TLE_LINE1":"1 47559U 21009M   21265.66399295 -.00000480  00000-0 -13296-4 0  9996","INCLINATION":"53.0558","ARG_OF_PERICENTER":"80.5736","MEAN_ANOMALY":"279.5536","EPHEMERIS_TYPE":"0","PERIOD":"95.592","RCS_SIZE":"LARGE","APOAPSIS":"548.951","SEMIMAJOR_AXIS":"6925.351","ECCENTRICITY":"0.00025050","GP_ID":"185267876","ELEMENT_SET_NO":"999","BSTAR":"-0.00001329600000","CLASSIFICATION_TYPE":"U","LAUNCH_DATE":"2021-02-04","MEAN_MOTION":"15.06399129","DECAY_DATE":null,"COUNTRY_CODE":"US","EPOCH":"2021-09-22T15:56:08.990880","PERIAPSIS":"545.481","RA_OF_ASC_NODE":"114.5996","FILE":"3123736"},{"OBJECT_ID":"2021-009N","TLE_LINE2":"2 47560  53.0562 114.3421 0001952  80.7027 279.4183 15.06397769 35557","NORAD_CAT_ID":"47560","MEAN_MOTION_DDOT":"0.0000000000000","TIME_SYSTEM":"UTC","OBJECT_TYPE":"PAYLOAD","MEAN_MOTION_DOT":"0.00000881","REV_AT_EPOCH":"3555","CENTER_NAME":"EARTH","OBJECT_NAME":"STARLINK-1959","MEAN_ELEMENT_THEORY":"SGP4","SITE":"AFETR","REF_FRAME":"TEME","TLE_LINE1":"1 47560U 21009N   21265.72297009  .00000881  00000-0  78050-4 0  9997","INCLINATION":"53.0562","ARG_OF_PERICENTER":"80.7027","MEAN_ANOMALY":"279.4183","EPHEMERIS_TYPE":"0","PERIOD":"95.592","RCS_SIZE":"LARGE","APOAPSIS":"548.572","SEMIMAJOR_AXIS":"6925.355","GP_ID":"185269127","ECCENTRICITY":"0.00019520","ELEMENT_SET_NO":"999","BSTAR":"0.00007805000000","CLASSIFICATION_TYPE":"U","LAUNCH_DATE":"2021-02-04","MEAN_MOTION":"15.06397769","DECAY_DATE":null,"COUNTRY_CODE":"US","EPOCH":"2021-09-22T17:21:04.615776","PERIAPSIS":"545.869","FILE":"3123736","RA_OF_ASC_NODE":"114.3421"},{"INCLINATION":"53.0603","ARG_OF_PERICENTER":"262.9398","SITE":"AFETR","REF_FRAME":"TEME","TLE_LINE1":"1 47561U 21009P   21265.37833232  .00000911  00000-0  80089-4 0  9992","OBJECT_NAME":"STARLINK-1960","MEAN_ELEMENT_THEORY":"SGP4","MEAN_MOTION_DOT":"0.00000911","REV_AT_EPOCH":"3522","CENTER_NAME":"EARTH","OBJECT_TYPE":"PAYLOAD","MEAN_MOTION_DDOT":"0.0000000000000","TIME_SYSTEM":"UTC","TLE_LINE2":"2 47561  53.0603 135.8712 0003689 262.9398  97.1171 15.06391005 35222","NORAD_CAT_ID":"47561","OBJECT_ID":"2021-009P","RA_OF_ASC_NODE":"135.8712","FILE":"3123417","DECAY_DATE":null,"COUNTRY_CODE":"US","MEAN_MOTION":"15.06391005","EPOCH":"2021-09-22T09:04:47.912448","PERIAPSIS":"544.686","BSTAR":"0.00008008900000","CLASSIFICATION_TYPE":"U","LAUNCH_DATE":"2021-02-04","ECCENTRICITY":"0.00036890","GP_ID":"185238681","ELEMENT_SET_NO":"999","SEMIMAJOR_AXIS":"6925.376","APOAPSIS":"549.796","RCS_SIZE":"LARGE","MEAN_ANOMALY":"97.1171","EPHEMERIS_TYPE":"0","PERIOD":"95.593"},{"APOAPSIS":"549.087","RCS_SIZE":"LARGE","MEAN_ANOMALY":"296.3601","EPHEMERIS_TYPE":"0","PERIOD":"95.593","ECCENTRICITY":"0.00026520","GP_ID":"185238933","ELEMENT_SET_NO":"999","SEMIMAJOR_AXIS":"6925.386","DECAY_DATE":null,"COUNTRY_CODE":"US","MEAN_MOTION":"15.06387878","EPOCH":"2021-09-22T01:28:21.281952","PERIAPSIS":"545.414","BSTAR":"-0.00003911100000","CLASSIFICATION_TYPE":"U","LAUNCH_DATE":"2021-02-04","FILE":"3123417","RA_OF_ASC_NODE":"137.3018","NORAD_CAT_ID":"47562","TLE_LINE2":"2 47562  53.0553 137.3018 0002652  63.7660 296.3601 15.06387878 35179","OBJECT_ID":"2021-009Q","OBJECT_TYPE":"PAYLOAD","MEAN_MOTION_DDOT":"0.0000000000000","TIME_SYSTEM":"UTC","OBJECT_NAME":"STARLINK-1961","MEAN_ELEMENT_THEORY":"SGP4","MEAN_MOTION_DOT":"-0.00000864","REV_AT_EPOCH":"3517","CENTER_NAME":"EARTH","INCLINATION":"53.0553","ARG_OF_PERICENTER":"63.7660","SITE":"AFETR","REF_FRAME":"TEME","TLE_LINE1":"1 47562U 21009Q   21265.06135743 -.00000864  00000-0 -39111-4 0  9990"},{"TLE_LINE1":"1 47563U 21009R   21265.34885711  .00001286  00000-0  10524-3 0  9992","SITE":"AFETR","REF_FRAME":"TEME","ARG_OF_PERICENTER":"78.9330","INCLINATION":"53.0559","CENTER_NAME":"EARTH","REV_AT_EPOCH":"3521","MEAN_MOTION_DOT":"0.00001286","MEAN_ELEMENT_THEORY":"SGP4","OBJECT_NAME":"STARLINK-1962","TIME_SYSTEM":"UTC","MEAN_MOTION_DDOT":"0.0000000000000","OBJECT_TYPE":"PAYLOAD","OBJECT_ID":"2021-009R","NORAD_CAT_ID":"47563","TLE_LINE2":"2 47563  53.0559 136.0092 0002125  78.9330 281.1898 15.06388665 35211","FILE":"3123417","RA_OF_ASC_NODE":"136.0092","LAUNCH_DATE":"2021-02-04","CLASSIFICATION_TYPE":"U","BSTAR":"0.00010524000000","PERIAPSIS":"545.777","EPOCH":"2021-09-22T08:22:21.254304","MEAN_MOTION":"15.06388665","DECAY_DATE":null,"COUNTRY_CODE":"US","SEMIMAJOR_AXIS":"6925.383","ELEMENT_SET_NO":"999","GP_ID":"185239184","ECCENTRICITY":"0.00021250","PERIOD":"95.593","EPHEMERIS_TYPE":"0","MEAN_ANOMALY":"281.1898","RCS_SIZE":"LARGE","APOAPSIS":"548.720"},{"OBJECT_TYPE":"PAYLOAD","MEAN_MOTION_DDOT":"0.0000000000000","TIME_SYSTEM":"UTC","TLE_LINE2":"2 47564  53.0556 126.0041 0002258  66.6527 293.4699 15.06391779 35351","NORAD_CAT_ID":"47564","OBJECT_ID":"2021-009S","INCLINATION":"53.0556","ARG_OF_PERICENTER":"66.6527","SITE":"AFETR","REF_FRAME":"TEME","TLE_LINE1":"1 47564U 21009S   21265.34976866 -.00000800  00000-0 -34808-4 0  9990","OBJECT_NAME":"STARLINK-1963","MEAN_ELEMENT_THEORY":"SGP4","REV_AT_EPOCH":"3535","MEAN_MOTION_DOT":"-0.00000800","CENTER_NAME":"EARTH","GP_ID":"185237932","ECCENTRICITY":"0.00022580","ELEMENT_SET_NO":"999","SEMIMAJOR_AXIS":"6925.374","APOAPSIS":"548.803","RCS_SIZE":"LARGE","MEAN_ANOMALY":"293.4699","EPHEMERIS_TYPE":"0","PERIOD":"95.593","FILE":"3123417","RA_OF_ASC_NODE":"126.0041","COUNTRY_CODE":"US","DECAY_DATE":null,"MEAN_MOTION":"15.06391779","EPOCH":"2021-09-22T08:23:40.012224","PERIAPSIS":"545.675","BSTAR":"-0.00003480800000","CLASSIFICATION_TYPE":"U","LAUNCH_DATE":"2021-02-04"},{"OBJECT_TYPE":"PAYLOAD","TIME_SYSTEM":"UTC","MEAN_MOTION_DDOT":"0.0000000000000","TLE_LINE2":"2 47565  53.0550 126.0201 0002436  68.2363 291.8885 15.06401488 35356","NORAD_CAT_ID":"47565","OBJECT_ID":"2021-009T","ARG_OF_PERICENTER":"68.2363","INCLINATION":"53.0550","TLE_LINE1":"1 47565U 21009T   21265.34607624  .00000899  00000-0  79280-4 0  9993","SITE":"AFETR","REF_FRAME":"TEME","MEAN_ELEMENT_THEORY":"SGP4","OBJECT_NAME":"STARLINK-1964","CENTER_NAME":"EARTH","MEAN_MOTION_DOT":"0.00000899","REV_AT_EPOCH":"3535","ELEMENT_SET_NO":"999","GP_ID":"185238182","ECCENTRICITY":"0.00024360","SEMIMAJOR_AXIS":"6925.344","APOAPSIS":"548.896","RCS_SIZE":"LARGE","PERIOD":"95.592","EPHEMERIS_TYPE":"0","MEAN_ANOMALY":"291.8885","RA_OF_ASC_NODE":"126.0201","FILE":"3123417","PERIAPSIS":"545.522","EPOCH":"2021-09-22T08:18:20.987136","DECAY_DATE":null,"COUNTRY_CODE":"US","MEAN_MOTION":"15.06401488","LAUNCH_DATE":"2021-02-04","CLASSIFICATION_TYPE":"U","BSTAR":"0.00007928000000"},{"OBJECT_TYPE":"PAYLOAD","TIME_SYSTEM":"UTC","MEAN_MOTION_DDOT":"0.0000000000000","NORAD_CAT_ID":"47566","TLE_LINE2":"2 47566  53.0546 114.5571 0002273  77.1971 282.9272 15.06396022 35546","OBJECT_ID":"2021-009U","INCLINATION":"53.0546","ARG_OF_PERICENTER":"77.1971","SITE":"AFETR","REF_FRAME":"TEME","TLE_LINE1":"1 47566U 21009U   21265.67136701  .00000991  00000-0  85438-4 0  9998","OBJECT_NAME":"STARLINK-1965","MEAN_ELEMENT_THEORY":"SGP4","MEAN_MOTION_DOT":"0.00000991","REV_AT_EPOCH":"3554","CENTER_NAME":"EARTH","ELEMENT_SET_NO":"999","ECCENTRICITY":"0.00022730","GP_ID":"185268127","SEMIMAJOR_AXIS":"6925.361","APOAPSIS":"548.800","RCS_SIZE":"LARGE","PERIOD":"95.592","MEAN_ANOMALY":"282.9272","EPHEMERIS_TYPE":"0","FILE":"3123736","RA_OF_ASC_NODE":"114.5571","EPOCH":"2021-09-22T16:06:46.109664","PERIAPSIS":"545.652","COUNTRY_CODE":"US","DECAY_DATE":null,"MEAN_MOTION":"15.06396022","LAUNCH_DATE":"2021-02-04","BSTAR":"0.00008543800000","CLASSIFICATION_TYPE":"U"},{"INCLINATION":"53.0550","ARG_OF_PERICENTER":"75.3225","REF_FRAME":"TEME","SITE":"AFETR","TLE_LINE1":"1 47567U 21009V   21265.11109156  .00001414  00000-0  11379-3 0  9995","OBJECT_NAME":"STARLINK-1966","MEAN_ELEMENT_THEORY":"SGP4","REV_AT_EPOCH":"3489","MEAN_MOTION_DOT":"0.00001414","CENTER_NAME":"EARTH","OBJECT_TYPE":"PAYLOAD","MEAN_MOTION_DDOT":"0.0000000000000","TIME_SYSTEM":"UTC","TLE_LINE2":"2 47567  53.0550 157.0801 0001974  75.3225 284.7983 15.06400240 34893","NORAD_CAT_ID":"47567","OBJECT_ID":"2021-009V","FILE":"3123417","RA_OF_ASC_NODE":"157.0801","MEAN_MOTION":"15.06400240","DECAY_DATE":null,"COUNTRY_CODE":"US","EPOCH":"2021-09-22T02:39:58.310784","PERIAPSIS":"545.846","BSTAR":"0.00011379000000","CLASSIFICATION_TYPE":"U","LAUNCH_DATE":"2021-02-04","ECCENTRICITY":"0.00019740","GP_ID":"185239684","ELEMENT_SET_NO":"999","SEMIMAJOR_AXIS":"6925.348","APOAPSIS":"548.580","RCS_SIZE":"LARGE","MEAN_ANOMALY":"284.7983","EPHEMERIS_TYPE":"0","PERIOD":"95.592"}];
